line1,line2,validFromUtcTime
1 00000U 00000E   26001.00000000  .00000000  00000-0  27772-4 0    01,2 00000  88.9289  30.3308 0009858 270.8408 164.2850 13.55239587    06,2026-01-01T00:00:00Z
1 00000U 00000E   26002.00000000  .00000000  00000-0  27772-4 0    02,2 00000  88.9289  30.2219 0009858 267.9308   3.1459 13.55239625    01,2026-01-02T00:00:00Z
